ORBCOMM FM37            
1 33064U 08031E   25308.99621468  .00002047  00000+0  29292-3 0  9990
2 33064  48.4403  33.9624 0005951 262.3033 268.3683 14.80367592934903
ORBCOMM FM40            
1 33065U 08031F   25308.95657571  .00002523  00000+0  33506-3 0  9993
2 33065  48.4423  15.7577 0007086 276.8697 252.8705 14.82800904935048
VESSELSAT 1             
1 37840U 11058C   25308.72233027  .00000395  00000+0  70528-4 0  9993
2 37840  19.9632 323.4899 0013476 292.8376  67.0605 14.11386123726188
ORBCOMM FM109           
1 40086U 14040A   25308.70755619  .00000777  00000+0  20233-3 0  9998
2 40086  47.0033  72.5248 0002344 260.4450  99.6171 14.58431868601579
ORBCOMM FM107           
1 40087U 14040B   25309.07137791  .00000826  00000+0  21245-3 0  9994
2 40087  47.0053  71.7113 0001720 223.3006 136.7744 14.58510613601706
ORBCOMM FM106           
1 40088U 14040C   25309.09750034  .00001396  00000+0  26214-3 0  9992
2 40088  47.0602 242.3494 0016887 359.6220   0.4656 14.69865842604202
ORBCOMM FM111           
1 40089U 14040D   25309.07480834  .00003517  00000+0  40637-3 0  9991
2 40089  47.0006  73.3465 0028886 149.7938 210.4632 14.87315767611196
ORBCOMM FM104           
1 40090U 14040E   25309.14675702  .00000725  00000+0  19751-3 0  9992
2 40090  47.0036 106.6693 0016028 130.9566 229.2709 14.56899230601176
